SES-2                   
1 37809U 11049A   26066.12405812 -.00000198  00000+0  00000+0 0  9992
2 37809   0.0261  75.5680 0002899 273.3584 133.5530  1.00271757 52949
QUETZSAT 1              
1 37826U 11054A   26066.11850639 -.00000244  00000+0  00000+0 0  9999
2 37826   0.0477 293.1030 0002696  60.5634 136.8186  1.00272744 48856
SES-4                   
1 38087U 12007A   26065.43933632 -.00000173  00000+0  00000+0 0  9998
2 38087   0.0353  65.8553 0002193 272.1207 322.3456  1.00270086 51192
SES-5                   
1 38652U 12036A   26065.22597522  .00000028  00000+0  00000+0 0  9997
2 38652   0.0597 310.4117 0001901  31.4449 268.4077  1.00271218 43429
ASTRA 2F                
1 38778U 12051A   26065.58710912  .00000146  00000+0  00000+0 0  9993
2 38778   0.0920 260.0553 0002290  10.6931 133.1353  1.00276624 40102
SES-6                   
1 39172U 13026A   26066.09428076 -.00000264  00000+0  00000+0 0  9991
2 39172   0.0601 290.9303 0001866  69.3422 157.9518  1.00271490 46701
O3B FM5                 
1 39188U 13031A   26065.89606859 -.00000026  00000+0  00000+0 0  9994
2 39188   0.0981  13.3428 0003327 323.3646  23.2725  5.00116485231919
O3B FM4                 
1 39189U 13031B   26065.21566536 -.00000026  00000+0  00000+0 0  9998
2 39189   0.0553 345.1172 0005086   9.2557   5.6159  5.00115247231899
O3B FM2                 
1 39190U 13031C   26066.08090852 -.00000026  00000+0  00000+0 0  9999
2 39190   0.0561 338.8755 0002815   5.7081  15.4029  5.00116011232005
O3B PFM                 
1 39191U 13031D   26065.09556941 -.00000026  00000+0  00000+0 0  9996
2 39191   0.0668   7.2787 0005147 352.3292   0.3862  5.00115906231517
ASTRA 2E                
1 39285U 13056A   26066.07802911  .00000148  00000+0  00000+0 0  9991
2 39285   0.0738  35.3208 0002178 305.8848 240.1477  1.00273370 45391
SES-8                   
1 39460U 13071A   26066.02828844 -.00000272  00000+0  00000+0 0  9990
2 39460   0.0515 270.8461 0001768 105.4275 253.6443  1.00272302 43415
ASTRA 5B                
1 39617U 14011B   26066.07802911  .00000134  00000+0  00000+0 0  9997
2 39617   0.0853 301.2671 0004003  28.9943 246.0885  1.00272471 43640
O3B FM3                 
1 40079U 14038A   26065.96175506 -.00000026  00000+0  00000+0 0  9991
2 40079   0.0530 353.4777 0000638  57.1388 309.3841  5.00115587207936
O3B FM7                 
1 40080U 14038B   26061.31035470 -.00000029  00000+0  00000+0 0  9996
2 40080   0.0588 348.9474 0004488 339.4059  31.6123  5.00115622212532
O3B FM6                 
1 40081U 14038C   26065.73495754 -.00000026  00000+0  00000+0 0  9999
2 40081   0.0549 351.2792 0002664 351.0679  17.6384  5.00115757212703
O3B FM8                 
1 40082U 14038D   26065.38849376 -.00000026  00000+0  00000+0 0  9994
2 40082   0.0558 350.6402 0002654 356.7405  12.6073  5.00116014212801
